GLOBALSTAR M045         
1 25676U 99019A   25243.95831466 -.00000096  00000+0 -25244-4 0  9999
2 25676  51.9961  89.3047 0001034  57.9502  89.5828 12.27065014202693
GLOBALSTAR M019         
1 25677U 99019B   25243.92998399  .00000038  00000+0  13342-2 0  9994
2 25677  51.9849 225.0814 0001236 102.9546 279.3423 12.13875527194348
GLOBALSTAR M044         
1 25678U 99019C   25243.61850122  .00000004  00000+0  12176-2 0  9999
2 25678  51.9956 186.7446 0005716 185.0950 345.7810 11.90255708180306
GLOBALSTAR M042         
1 25679U 99019D   25243.95968133 -.00000052  00000+0  37762-3 0  9992
2 25679  52.0000 197.0455 0003179  89.3730 314.3595 12.22086429194526
GLOBALSTAR M025         
1 25770U 99031A   25243.55647334 -.00000083  00000+0 -47160-3 0  9999
2 25770  51.9886 344.6747 0001483 263.0650 190.9274 11.22562324490174
GLOBALSTAR M049         
1 25771U 99031B   25243.75965171 -.00000025  00000+0  13847-2 0  9993
2 25771  51.9906  22.7628 0003558 131.2707 228.8396 11.12115522125831
GLOBALSTAR M047         
1 25772U 99031C   25243.82895708 -.00000049  00000+0  55892-3 0  9993
2 25772  51.9867  12.3485 0016645  35.0247 325.1651 11.31929443479670
GLOBALSTAR M052         
1 25773U 99031D   25243.96498876 -.00000058  00000+0  25706-3 0  9995
2 25773  51.9853 129.9073 0002456 316.6450  55.5054 11.15060421486968
